[
    {
        "Altitude(m)": 557848.9399019899,
        "Argument of Periapsis(deg)": 0.006622991110713501,
        "Eccentricity": 0.0,
        "Inclination(deg)": 53.0,
        "Latitude(deg)": -16.650269229096022,
        "Longitude(deg)": 111.2751552984243,
        "Mean Anomaly(deg)": -20.817507132422385,
        "RAAN(deg)": 224.99014336852804,
        "Satellite Name": "Starlink Shell 1 1010",
        "Satellite Number": 1010,
        "Semi-Major Axis(m)": 6931778.249405717,
        "Time(s)": 190
    },
    {
        "Altitude(m)": 557703.7222120309,
        "Argument of Periapsis(deg)": 0.0069715695902247375,
        "Eccentricity": 0.0,
        "Inclination(deg)": 53.0,
        "Latitude(deg)": -16.15954837283623,
        "Longitude(deg)": 111.64259757845758,
        "Mean Anomaly(deg)": -20.190675928865716,
        "RAAN(deg)": 224.98962459845052,
        "Satellite Name": "Starlink Shell 1 1010",
        "Satellite Number": 1010,
        "Semi-Major Axis(m)": 6931778.249405717,
        "Time(s)": 200
    },
    {
        "Altitude(m)": 557560.3723440429,
        "Argument of Periapsis(deg)": 0.007320148069735974,
        "Eccentricity": 0.0,
        "Inclination(deg)": 53.0,
        "Latitude(deg)": -15.668010561489469,
        "Longitude(deg)": 112.00804062902341,
        "Mean Anomaly(deg)": -19.56384472530897,
        "RAAN(deg)": 224.98910582837308,
        "Satellite Name": "Starlink Shell 1 1010",
        "Satellite Number": 1010,
        "Semi-Major Axis(m)": 6931778.249405717,
        "Time(s)": 210
    },
    {
        "Altitude(m)": 557418.9372898701,
        "Argument of Periapsis(deg)": 0.007668726549247212,
        "Eccentricity": 0.0,
        "Inclination(deg)": 53.0,
        "Latitude(deg)": -15.175684961019714,
        "Longitude(deg)": 112.37155480389764,
        "Mean Anomaly(deg)": -18.9370135217523,
        "RAAN(deg)": 224.98858705829562,
        "Satellite Name": "Starlink Shell 1 1010",
        "Satellite Number": 1010,
        "Semi-Major Axis(m)": 6931778.249405717,
        "Time(s)": 220
    },
    {
        "Altitude(m)": 557279.4630404068,
        "Argument of Periapsis(deg)": 0.00801730502875845,
        "Eccentricity": 0.0,
        "Inclination(deg)": 53.0,
        "Latitude(deg)": -14.682600317573641,
        "Longitude(deg)": 112.73320964861692,
        "Mean Anomaly(deg)": -18.310182318195526,
        "RAAN(deg)": 224.98806828821813,
        "Satellite Name": "Starlink Shell 1 1010",
        "Satellite Number": 1010,
        "Semi-Major Axis(m)": 6931778.249405717,
        "Time(s)": 230
    },
    {
        "Altitude(m)": 557141.9945654416,
        "Argument of Periapsis(deg)": 0.008365883508269684,
        "Eccentricity": 0.0,
        "Inclination(deg)": 53.0,
        "Latitude(deg)": -14.188784974595466,
        "Longitude(deg)": 113.09307443138316,
        "Mean Anomaly(deg)": -17.683351114638782,
        "RAAN(deg)": 224.98754951814067,
        "Satellite Name": "Starlink Shell 1 1010",
        "Satellite Number": 1010,
        "Semi-Major Axis(m)": 6931778.249405717,
        "Time(s)": 240
    },
    {
        "Altitude(m)": 557006.5757940466,
        "Argument of Periapsis(deg)": 0.008714461987780921,
        "Eccentricity": 0.0,
        "Inclination(deg)": 53.0,
        "Latitude(deg)": -13.694266889583812,
        "Longitude(deg)": 113.45121716114919,
        "Mean Anomaly(deg)": -17.056519911082134,
        "RAAN(deg)": 224.9870307480632,
        "Satellite Name": "Starlink Shell 1 1010",
        "Satellite Number": 1010,
        "Semi-Major Axis(m)": 6931778.249405717,
        "Time(s)": 250
    },
    {
        "Altitude(m)": 556873.2495954564,
        "Argument of Periapsis(deg)": 0.009063040467292158,
        "Eccentricity": 0.0,
        "Inclination(deg)": 53.0,
        "Latitude(deg)": -13.199073650505891,
        "Longitude(deg)": 113.80770511860607,
        "Mean Anomaly(deg)": -16.429688707525468,
        "RAAN(deg)": 224.9865119779857,
        "Satellite Name": "Starlink Shell 1 1010",
        "Satellite Number": 1010,
        "Semi-Major Axis(m)": 6931778.249405717,
        "Time(s)": 260
    },
    {
        "Altitude(m)": 556742.0577604523,
        "Argument of Periapsis(deg)": 0.009411618946803396,
        "Eccentricity": 0.0,
        "Inclination(deg)": 53.0,
        "Latitude(deg)": -12.703232491880271,
        "Longitude(deg)": 114.16260538717977,
        "Mean Anomaly(deg)": -15.802857503968694,
        "RAAN(deg)": 224.98599320790822,
        "Satellite Name": "Starlink Shell 1 1010",
        "Satellite Number": 1010,
        "Semi-Major Axis(m)": 6931778.249405717,
        "Time(s)": 270
    },
    {
        "Altitude(m)": 556613.0409833033,
        "Argument of Periapsis(deg)": 0.009760197426314633,
        "Eccentricity": 0.0,
        "Inclination(deg)": 53.0,
        "Latitude(deg)": -12.206770310539607,
        "Longitude(deg)": 114.51598387114596,
        "Mean Anomaly(deg)": -15.176026300411948,
        "RAAN(deg)": 224.98547443783076,
        "Satellite Name": "Starlink Shell 1 1010",
        "Satellite Number": 1010,
        "Semi-Major Axis(m)": 6931778.249405717,
        "Time(s)": 280
    },
    {
        "Altitude(m)": 556486.2388442378,
        "Argument of Periapsis(deg)": 0.01010877590582587,
        "Eccentricity": 0.0,
        "Inclination(deg)": 53.0,
        "Latitude(deg)": -11.709713681087175,
        "Longitude(deg)": 114.86790582659292,
        "Mean Anomaly(deg)": -14.549195096855279,
        "RAAN(deg)": 224.98495566775327,
        "Satellite Name": "Starlink Shell 1 1010",
        "Satellite Number": 1010,
        "Semi-Major Axis(m)": 6931778.249405717,
        "Time(s)": 290
    },
    {
        "Altitude(m)": 556361.6897924582,
        "Argument of Periapsis(deg)": 0.010457354385337106,
        "Eccentricity": 0.0,
        "Inclination(deg)": 53.0,
        "Latitude(deg)": -11.212088871059022,
        "Longitude(deg)": 115.21843639234658,
        "Mean Anomaly(deg)": -13.922363893298632,
        "RAAN(deg)": 224.9844368976758,
        "Satellite Name": "Starlink Shell 1 1010",
        "Satellite Number": 1010,
        "Semi-Major Axis(m)": 6931778.249405717,
        "Time(s)": 300
    },
    {
        "Altitude(m)": 556239.431129718,
        "Argument of Periapsis(deg)": 0.010805932864848343,
        "Eccentricity": 0.0,
        "Inclination(deg)": 53.0,
        "Latitude(deg)": -10.713921855803216,
        "Longitude(deg)": 115.56763960797315,
        "Mean Anomaly(deg)": -13.295532689741886,
        "RAAN(deg)": 224.98391812759834,
        "Satellite Name": "Starlink Shell 1 1010",
        "Satellite Number": 1010,
        "Semi-Major Axis(m)": 6931778.249405717,
        "Time(s)": 310
    },
    {
        "Altitude(m)": 556119.4989944701,
        "Argument of Periapsis(deg)": 0.01115451134435958,
        "Eccentricity": 0.0,
        "Inclination(deg)": 53.0,
        "Latitude(deg)": -10.215238333090488,
        "Longitude(deg)": 115.91557894459523,
        "Mean Anomaly(deg)": -12.668701486185089,
        "RAAN(deg)": 224.98339935752085,
        "Satellite Name": "Starlink Shell 1 1010",
        "Satellite Number": 1010,
        "Semi-Major Axis(m)": 6931778.249405717,
        "Time(s)": 320
    },
    {
        "Altitude(m)": 556001.9283465911,
        "Argument of Periapsis(deg)": 0.011503089823870818,
        "Eccentricity": 0.0,
        "Inclination(deg)": 53.0,
        "Latitude(deg)": -9.716063737467026,
        "Longitude(deg)": 116.26231783564131,
        "Mean Anomaly(deg)": -12.041870282628443,
        "RAAN(deg)": 224.98288058744342,
        "Satellite Name": "Starlink Shell 1 1010",
        "Satellite Number": 1010,
        "Semi-Major Axis(m)": 6931778.249405717,
        "Time(s)": 330
    },
    {
        "Altitude(m)": 555886.75295268,
        "Argument of Periapsis(deg)": 0.011851668303382053,
        "Eccentricity": 0.0,
        "Inclination(deg)": 53.0,
        "Latitude(deg)": -9.216423254360818,
        "Longitude(deg)": 116.60791869464983,
        "Mean Anomaly(deg)": -11.415039079071699,
        "RAAN(deg)": 224.98236181736596,
        "Satellite Name": "Starlink Shell 1 1010",
        "Satellite Number": 1010,
        "Semi-Major Axis(m)": 6931778.249405717,
        "Time(s)": 340
    },
    {
        "Altitude(m)": 555774.0053719581,
        "Argument of Periapsis(deg)": 0.012200246782893292,
        "Eccentricity": 0.0,
        "Inclination(deg)": 53.0,
        "Latitude(deg)": -8.716341833956927,
        "Longitude(deg)": 116.95244344586759,
        "Mean Anomaly(deg)": -10.788207875515027,
        "RAAN(deg)": 224.98184304728846,
        "Satellite Name": "Starlink Shell 1 1010",
        "Satellite Number": 1010,
        "Semi-Major Axis(m)": 6931778.249405717,
        "Time(s)": 350
    },
    {
        "Altitude(m)": 555663.7169427634,
        "Argument of Periapsis(deg)": 0.012548825262404526,
        "Eccentricity": 0.0,
        "Inclination(deg)": 53.0,
        "Latitude(deg)": -8.215844204850557,
        "Longitude(deg)": 117.29595405476802,
        "Mean Anomaly(deg)": -10.16137667195828,
        "RAAN(deg)": 224.981324277211,
        "Satellite Name": "Starlink Shell 1 1010",
        "Satellite Number": 1010,
        "Semi-Major Axis(m)": 6931778.249405717,
        "Time(s)": 360
    },
    {
        "Altitude(m)": 555555.9177696689,
        "Argument of Periapsis(deg)": 0.012897403741915765,
        "Eccentricity": 0.0,
        "Inclination(deg)": 53.0,
        "Latitude(deg)": -7.714954887491302,
        "Longitude(deg)": 117.63851154561263,
        "Mean Anomaly(deg)": -9.53454546840151,
        "RAAN(deg)": 224.9808055071335,
        "Satellite Name": "Starlink Shell 1 1010",
        "Satellite Number": 1010,
        "Semi-Major Axis(m)": 6931778.249405717,
        "Time(s)": 370
    }
]